{
  "64801": {
    "noradId": "64801",
    "tle": [
      "1 64801C 25150M   25353.76437500  .00037547  00000+0  30821-2 0  3537",
      "2 64801  69.9997 335.9971 0003145 270.3711 105.5886 14.99091045    17"
    ]
  },
  "64802": {
    "noradId": "64802",
    "tle": [
      "1 64802C 25150N   25353.76576389  .00007287  00000+0  59804-3 0  3538",
      "2 64802  70.0005 336.1302 0002749 275.8823 342.3246 14.99129589    11"
    ]
  },
  "64803": {
    "noradId": "64803",
    "tle": [
      "1 64803C 25150P   25353.76993056  .00005181  00000+0  42517-3 0  3537",
      "2 64803  70.0005 336.1232 0002905 274.3789   1.8893 14.99134872    19"
    ]
  },
  "64804": {
    "noradId": "64804",
    "tle": [
      "1 64804C 25150Q   25353.76645833  .00003929  00000+0  32236-3 0  3530",
      "2 64804  70.0004 336.0112 0002766 270.2857  94.4188 14.99139710    12"
    ]
  },
  "64805": {
    "noradId": "64805",
    "tle": [
      "1 64805C 25150R   25353.77062500  .00007720  00000+0  63364-3 0  3535",
      "2 64805  70.0004 336.1354 0002783 284.4679 346.5590 14.99125730    15"
    ]
  },
  "64806": {
    "noradId": "64806",
    "tle": [
      "1 64806C 25150S   25353.76784722 -.00090924  00000+0 -74578-2 0  3530",
      "2 64806  69.9998 335.8063 0002925 276.3682 280.8811 14.99251528    11"
    ]
  },
  "64807": {
    "noradId": "64807",
    "tle": [
      "1 64807C 25150T   25353.76437500  .00007391  00000+0  60675-3 0  3538",
      "2 64807  70.0002 336.0930 0003151 270.8387  19.7463 14.99121271    13"
    ]
  },
  "64808": {
    "noradId": "64808",
    "tle": [
      "1 64808C 25150U   25353.76854167  .00232560  00000+0  19162-1 0  3532",
      "2 64808  70.0007 336.0965 0003093 293.4478   3.8496 14.98750320    16"
    ]
  },
  "64809": {
    "noradId": "64809",
    "tle": [
      "1 64809C 25150V   25353.76368056  .00006203  00000+0  50914-3 0  3535",
      "2 64809  69.9999 336.0190 0002718 280.6264  75.1211 14.99124263    17"
    ]
  },
  "64810": {
    "noradId": "64810",
    "tle": [
      "1 64810C 25150W   25353.76993056 -.00263640  00000+0 -21599-1 0  3538",
      "2 64810  69.9997 335.9230 0003434 276.2055 184.9830 14.99468785    11"
    ]
  },
  "64811": {
    "noradId": "64811",
    "tle": [
      "1 64811C 25150X   25353.76923611  .00006961  00000+0  57140-3 0  3531",
      "2 64811  70.0002 335.8249 0002521 277.5828 265.4406 14.99126792    12"
    ]
  },
  "64812": {
    "noradId": "64812",
    "tle": [
      "1 64812C 25150Y   25353.76923611  .00003915  00000+0  32806-3 0  3530",
      "2 64812  70.0006 336.0204 0003220 273.3410  52.6576 14.98330235    11"
    ]
  },
  "64813": {
    "noradId": "64813",
    "tle": [
      "1 64813C 25150Z   25353.76645833 -.00507910  00000+0 -41869-1 0  3531",
      "2 64813  70.0003 336.1741 0002580 275.6169 303.1630 14.99479798    14"
    ]
  },
  "64814": {
    "noradId": "64814",
    "tle": [
      "1 64814C 25150AA  25353.76506944  .00004779  00000+0  39217-3 0  3530",
      "2 64814  70.0004 335.8897 0002863 276.7046 191.6501 14.99134084    17"
    ]
  },
  "64815": {
    "noradId": "64815",
    "tle": [
      "1 64815C 25150AB  25353.76993056  .00007107  00000+0  58323-3 0  3532",
      "2 64815  70.0001 335.9690 0002977 275.3654 137.4292 14.99130169    18"
    ]
  },
  "64842": {
    "noradId": "64842",
    "tle": [
      "1 64842C 25152A   25353.76784722  .00005003  00000+0  34736-3 0  3537",
      "2 64842  97.6023 206.6652 0001885  86.7381  46.9444 15.05647543    17"
    ]
  },
  "64843": {
    "noradId": "64843",
    "tle": [
      "1 64843C 25152B   25353.76715278  .00004831  00000+0  33554-3 0  3533",
      "2 64843  97.6028 206.7117 0002671  86.1711 133.7820 15.05636127    14"
    ]
  },
  "64844": {
    "noradId": "64844",
    "tle": [
      "1 64844C 25152C   25353.77131944  .00004818  00000+0  33455-3 0  3532",
      "2 64844  97.6031 206.7017 0002588  80.4142 147.0105 15.05641976    12"
    ]
  },
  "64845": {
    "noradId": "64845",
    "tle": [
      "1 64845C 25152D   25353.76506944  .00005057  00000+0  35118-3 0  3532",
      "2 64845  97.6025 206.6697 0002174  76.2527  57.3799 15.05640784    18"
    ]
  },
  "64846": {
    "noradId": "64846",
    "tle": [
      "1 64846C 25152E   25353.76784722  .00002522  00000+0  17510-3 0  3535",
      "2 64846  97.6003 206.7494 0002239  82.8922 260.7533 15.05645216    16"
    ]
  },
  "64847": {
    "noradId": "64847",
    "tle": [
      "1 64847C 25152F   25353.76923611  .00002766  00000+0  19210-3 0  3537",
      "2 64847  97.6022 206.7451 0002289  74.6392 246.5314 15.05642910    13"
    ]
  },
  "64848": {
    "noradId": "64848",
    "tle": [
      "1 64848C 25152G   25353.76506944  .00003369  00000+0  23395-3 0  3533",
      "2 64848  97.6013 206.7704 0001180  91.5823 282.0043 15.05647487    19"
    ]
  },
  "64849": {
    "noradId": "64849",
    "tle": [
      "1 64849C 25152H   25353.76784722  .00004094  00000+0  31930-3 0  3536",
      "2 64849  97.6032 207.3053 0003609  71.6850  70.1806 15.01258816    15"
    ]
  },
  "64850": {
    "noradId": "64850",
    "tle": [
      "1 64850C 25152J   25353.76645833  .00003939  00000+0  27359-3 0  3534",
      "2 64850  97.6034 206.7150 0002757  94.7906 151.3684 15.05630829    19"
    ]
  },
  "64851": {
    "noradId": "64851",
    "tle": [
      "1 64851C 25152K   25353.76645833  .00043454  00000+0  30194-2 0  3531",
      "2 64851  97.6029 206.6901 0002546  84.8829 101.2390 15.05579217    18"
    ]
  },
  "64852": {
    "noradId": "64852",
    "tle": [
      "1 64852C 25152L   25353.76437500  .00003297  00000+0  22895-3 0  3533",
      "2 64852  97.6031 206.7277 0002433  82.8164 182.0322 15.05644461    10"
    ]
  },
  "64853": {
    "noradId": "64853",
    "tle": [
      "1 64853C 25152M   25353.76437500  .00005206  00000+0  36154-3 0  3539",
      "2 64853  97.6027 206.6808 0002102  78.7367  81.1265 15.05640446    11"
    ]
  },
  "64854": {
    "noradId": "64854",
    "tle": [
      "1 64854C 25152N   25353.76506944  .00004427  00000+0  30738-3 0  3535",
      "2 64854  97.6011 206.7976 0001849  74.8178 343.7648 15.05645789    13"
    ]
  },
  "64855": {
    "noradId": "64855",
    "tle": [
      "1 64855C 25152P   25353.76784722  .00003721  00000+0  25840-3 0  3532",
      "2 64855  97.6034 206.7243 0002411  67.9360 200.7193 15.05640640    16"
    ]
  },
  "64856": {
    "noradId": "64856",
    "tle": [
      "1 64856C 25152Q   25353.77131944  .00004864  00000+0  33783-3 0  3530",
      "2 64856  97.6015 206.8251 0001668  86.3349  36.0969 15.05639889    15"
    ]
  },
  "64857": {
    "noradId": "64857",
    "tle": [
      "1 64857C 25152R   25353.76506944  .00002370  00000+0  16462-3 0  3531",
      "2 64857  97.6023 206.7554 0001946  87.3286 226.2695 15.05643479    19"
    ]
  },
  "64858": {
    "noradId": "64858",
    "tle": [
      "1 64858C 25152S   25353.76576389  .00004767  00000+0  33104-3 0  3536",
      "2 64858  97.6014 206.7922 0001699  80.6508 356.6948 15.05643782    13"
    ]
  },
  "64859": {
    "noradId": "64859",
    "tle": [
      "1 64859C 25152T   25353.76576389  .00004855  00000+0  33718-3 0  3536",
      "2 64859  97.6022 206.8117 0002034  69.1493  38.1870 15.05641632    17"
    ]
  },
  "64860": {
    "noradId": "64860",
    "tle": [
      "1 64860C 25152U   25353.76368056  .00004180  00000+0  32601-3 0  3539",
      "2 64860  97.6023 206.7080 0003645  65.6225 110.7433 15.01261734    10"
    ]
  },
  "64861": {
    "noradId": "64861",
    "tle": [
      "1 64861C 25152V   25353.77131944  .00004023  00000+0  31377-3 0  3530",
      "2 64861  97.6012 207.4970 0003188  74.1285 163.5379 15.01259612    15"
    ]
  },
  "64862": {
    "noradId": "64862",
    "tle": [
      "1 64862C 25152W   25353.76506944  .00003127  00000+0  21717-3 0  3537",
      "2 64862  97.6008 206.7809 0001418  73.7495 284.8392 15.05645715    15"
    ]
  },
  "64863": {
    "noradId": "64863",
    "tle": [
      "1 64863C 25152X   25353.77131944  .00004134  00000+0  28703-3 0  3534",
      "2 64863  97.6020 206.7995 0001754  79.1010 358.3346 15.05650075    13"
    ]
  },
  "64864": {
    "noradId": "64864",
    "tle": [
      "1 64864C 25152Y   25353.76784722  .00002599  00000+0  18052-3 0  3531",
      "2 64864  97.6009 206.7631 0001889  80.0694 278.5732 15.05642265    10"
    ]
  },
  "64865": {
    "noradId": "64865",
    "tle": [
      "1 64865C 25152Z   25353.76715278  .00003728  00000+0  25886-3 0  3530",
      "2 64865  97.6014 206.7797 0001684  79.2590 320.6147 15.05647613    19"
    ]
  },
  "64904": {
    "noradId": "64904",
    "tle": [
      "1 64904C 25157A   25353.76993056  .00003660  00000+0  91313-4 0  3535",
      "2 64904  53.1591   0.4443 0001420  88.5542  59.1011 15.39616019    12"
    ]
  },
  "64905": {
    "noradId": "64905",
    "tle": [
      "1 64905C 25157B   25353.80048611 -.00003573  00000+0 -89140-4 0  3539",
      "2 64905  53.1587 359.9395 0001255  93.6590  43.7203 15.39622843    16"
    ]
  },
  "64906": {
    "noradId": "64906",
    "tle": [
      "1 64906C 25157C   25353.76784722  .00006480  00000+0  16169-3 0  3533",
      "2 64906  53.1585   0.2992 0001264  91.3205 122.0417 15.39609458    17"
    ]
  },
  "64907": {
    "noradId": "64907",
    "tle": [
      "1 64907C 25157D   25353.77062500  .00001575  00000+0  39300-4 0  3531",
      "2 64907  53.1581   0.1820 0001276  92.6037 187.6692 15.39616746    13"
    ]
  },
  "64908": {
    "noradId": "64908",
    "tle": [
      "1 64908C 25157E   25353.76784722  .00006653  00000+0  16601-3 0  3538",
      "2 64908  53.1592 359.9391 0001277  89.5023 304.1267 15.39609499    16"
    ]
  },
  "64909": {
    "noradId": "64909",
    "tle": [
      "1 64909C 25157F   25353.77062500 -.00025459  00000+0 -63501-3 0  3531",
      "2 64909  53.1594 359.8239 0001232  84.4167  16.0729 15.39654562    16"
    ]
  }
}